[{"OBJECT_NAME":"STARLINK-4693","OBJECT_ID":"2022-104T","EPOCH":"2026-03-09T17:26:59.625600","MEAN_MOTION":15.08839187,"ECCENTRICITY":0.00012731,"INCLINATION":53.2167,"RA_OF_ASC_NODE":243.7309,"ARG_OF_PERICENTER":93.7657,"MEAN_ANOMALY":266.348,"EPHEMERIS_TYPE":0,"CLASSIFICATION_TYPE":"U","NORAD_CAT_ID":53605,"ELEMENT_SET_NO":999,"REV_AT_EPOCH":19562,"BSTAR":3.2503433e-5,"MEAN_MOTION_DOT":2.29e-6,"MEAN_MOTION_DDOT":0},{"OBJECT_NAME":"NEONSAT-1A","OBJECT_ID":"2026-019A","EPOCH":"2026-03-09T21:53:31.879392","MEAN_MOTION":15.0780294,"ECCENTRICITY":0.00137261,"INCLINATION":97.411,"RA_OF_ASC_NODE":192.4819,"ARG_OF_PERICENTER":167.4713,"MEAN_ANOMALY":192.686,"EPHEMERIS_TYPE":0,"CLASSIFICATION_TYPE":"U","NORAD_CAT_ID":67614,"ELEMENT_SET_NO":999,"REV_AT_EPOCH":585,"BSTAR":0.00027109929,"MEAN_MOTION_DOT":4.096e-5,"MEAN_MOTION_DDOT":0}]
